{"type":"FeatureCollection","metadata":{"source":"Territorio OESTE.kml","updatedAt":"2026-09-28","territories":96,"bounds":{"west":-62.1238658,"south":-31.4418611,"east":-62.0938876,"north":-31.3976478}},"features":[{"type":"Feature","properties":{"id":1,"source":"Territorio OESTE.kml","updatedAt":"2026-09-28"},"geometry":{"type":"Polygon","coordinates":[[[-62.1053965,-31.4034171],[-62.1011417,-31.404064],[-62.1042841,-31.3983074],[-62.1053965,-31.4034171]]]}},{"type":"Feature","properties":{"id":2,"source":"Territorio OESTE.kml","updatedAt":"2026-09-28"},"geometry":{"type":"Polygon","coordinates":[[[-62.1081926,-31.4004196],[-62.1048506,-31.4009828],[-62.1043785,-31.3987667],[-62.1076991,-31.3981898],[-62.1081926,-31.4004196]]]}},{"type":"Feature","properties":{"id":3,"source":"Territorio OESTE.kml","updatedAt":"2026-09-28"},"geometry":{"type":"Polygon","coordinates":[[[-62.1076991,-31.3981898],[-62.1110074,-31.3976478],[-62.1115278,-31.399896],[-62.1081926,-31.4004196],[-62.1076991,-31.3981898]]]}},{"type":"Feature","properties":{"id":4,"source":"Territorio OESTE.kml","updatedAt":"2026-09-28"},"geometry":{"type":"Polygon","coordinates":[[[-62.1048506,-31.4009828],[-62.1081926,-31.4004196],[-62.1087358,-31.4028561],[-62.1053965,-31.4034171],[-62.1048506,-31.4009828]]]}},{"type":"Feature","properties":{"id":5,"source":"Territorio OESTE.kml","updatedAt":"2026-09-28"},"geometry":{"type":"Polygon","coordinates":[[[-62.1081926,-31.4004196],[-62.1115278,-31.399896],[-62.1121018,-31.4022856],[-62.108749,-31.40289],[-62.1081926,-31.4004196]]]}},{"type":"Feature","properties":{"id":6,"source":"Territorio OESTE.kml","updatedAt":"2026-09-28"},"geometry":{"type":"Polygon","coordinates":[[[-62.1018873,-31.4039724],[-62.102456,-31.4062342],[-62.1002565,-31.4065593],[-62.0997255,-31.4065593],[-62.1011417,-31.404064],[-62.1018873,-31.4039724]]]}},{"type":"Feature","properties":{"id":7,"source":"Territorio OESTE.kml","updatedAt":"2026-09-28"},"geometry":{"type":"Polygon","coordinates":[[[-62.1053965,-31.4034171],[-62.1056862,-31.4045388],[-62.1021994,-31.405102],[-62.1018873,-31.4039724],[-62.1053965,-31.4034171]]]}},{"type":"Feature","properties":{"id":8,"source":"Territorio OESTE.kml","updatedAt":"2026-09-28"},"geometry":{"type":"Polygon","coordinates":[[[-62.1056862,-31.4045388],[-62.1059388,-31.4056999],[-62.1024895,-31.4062447],[-62.1021994,-31.405102],[-62.1056862,-31.4045388]]]}},{"type":"Feature","properties":{"id":9,"source":"Territorio OESTE.kml","updatedAt":"2026-09-28"},"geometry":{"type":"Polygon","coordinates":[[[-62.1078237,-31.4030143],[-62.108033,-31.4041251],[-62.1056862,-31.4045388],[-62.1053965,-31.4034171],[-62.1078237,-31.4030143]]]}},{"type":"Feature","properties":{"id":10,"source":"Territorio OESTE.kml","updatedAt":"2026-09-28"},"geometry":{"type":"Polygon","coordinates":[[[-62.108033,-31.4041251],[-62.1083119,-31.4052945],[-62.1059388,-31.4056999],[-62.1056862,-31.4045388],[-62.108033,-31.4041251]]]}},{"type":"Feature","properties":{"id":11,"source":"Territorio OESTE.kml","updatedAt":"2026-09-28"},"geometry":{"type":"Polygon","coordinates":[[[-62.1078237,-31.4030143],[-62.1115413,-31.4024191],[-62.1120884,-31.4047038],[-62.1083119,-31.4052945],[-62.1078237,-31.4030143]]]}},{"type":"Feature","properties":{"id":12,"source":"Territorio OESTE.kml","updatedAt":"2026-09-28"},"geometry":{"type":"Polygon","coordinates":[[[-62.1041579,-31.4059975],[-62.1046728,-31.4082867],[-62.1029509,-31.4085889],[-62.102456,-31.4062342],[-62.1041579,-31.4059975]]]}},{"type":"Feature","properties":{"id":13,"source":"Territorio OESTE.kml","updatedAt":"2026-09-28"},"geometry":{"type":"Polygon","coordinates":[[[-62.1059388,-31.4056999],[-62.1064216,-31.4080028],[-62.1046728,-31.4082867],[-62.1041579,-31.4059975],[-62.1059388,-31.4056999]]]}},{"type":"Feature","properties":{"id":14,"source":"Territorio OESTE.kml","updatedAt":"2026-09-28"},"geometry":{"type":"Polygon","coordinates":[[[-62.1083119,-31.4052945],[-62.108798,-31.4075783],[-62.1064216,-31.4080028],[-62.1059388,-31.4056999],[-62.1083119,-31.4052945]]]}},{"type":"Feature","properties":{"id":15,"source":"Territorio OESTE.kml","updatedAt":"2026-09-28"},"geometry":{"type":"Polygon","coordinates":[[[-62.1120884,-31.4047038],[-62.1127623,-31.4069785],[-62.108798,-31.4075783],[-62.1083119,-31.4052945],[-62.1120884,-31.4047038]]]}},{"type":"Feature","properties":{"id":16,"source":"Territorio OESTE.kml","updatedAt":"2026-09-28"},"geometry":{"type":"Polygon","coordinates":[[[-62.1130272,-31.4069151],[-62.1135904,-31.4094515],[-62.1121581,-31.409685],[-62.1115949,-31.4071531],[-62.1130272,-31.4069151]]]}},{"type":"Feature","properties":{"id":17,"source":"Territorio OESTE.kml","updatedAt":"2026-09-28"},"geometry":{"type":"Polygon","coordinates":[[[-62.0957598,-31.4122086],[-62.0962547,-31.4145042],[-62.0943382,-31.414841],[-62.0940861,-31.4147632],[-62.0938876,-31.4136919],[-62.0939144,-31.4133302],[-62.0944401,-31.4122361],[-62.0946976,-31.4123505],[-62.0957598,-31.4122086]]]}},{"type":"Feature","properties":{"id":18,"source":"Territorio OESTE.kml","updatedAt":"2026-09-28"},"geometry":{"type":"Polygon","coordinates":[[[-62.0957544,-31.4122086],[-62.0977607,-31.4118652],[-62.0981738,-31.4116913],[-62.0984366,-31.4129274],[-62.0960012,-31.4133256],[-62.0957544,-31.4122086]]]}},{"type":"Feature","properties":{"id":19,"source":"Territorio OESTE.kml","updatedAt":"2026-09-28"},"geometry":{"type":"Polygon","coordinates":[[[-62.0987384,-31.4140601],[-62.0962547,-31.4145042],[-62.0960066,-31.4133256],[-62.098442,-31.4129274],[-62.0987384,-31.4140601]]]}},{"type":"Feature","properties":{"id":20,"source":"Territorio OESTE.kml","updatedAt":"2026-09-28"},"geometry":{"type":"Polygon","coordinates":[[[-62.1207245,-31.4097933],[-62.1145554,-31.4107548],[-62.1142872,-31.4092897],[-62.1204778,-31.408374],[-62.1207245,-31.4097933]]]}},{"type":"Feature","properties":{"id":21,"source":"Territorio OESTE.kml","updatedAt":"2026-09-28"},"geometry":{"type":"Polygon","coordinates":[[[-62.0962547,-31.4145042],[-62.0968849,-31.4172935],[-62.094707,-31.4176598],[-62.0941289,-31.414961],[-62.0942844,-31.4148557],[-62.0962547,-31.4145042]]]}},{"type":"Feature","properties":{"id":22,"source":"Territorio OESTE.kml","updatedAt":"2026-09-28"},"geometry":{"type":"Polygon","coordinates":[[[-62.098379,-31.4141517],[-62.0990146,-31.4169639],[-62.0968849,-31.4172935],[-62.0962547,-31.4145042],[-62.098379,-31.4141517]]]}},{"type":"Feature","properties":{"id":23,"source":"Territorio OESTE.kml","updatedAt":"2026-09-28"},"geometry":{"type":"Polygon","coordinates":[[[-62.1004443,-31.4138037],[-62.1010969,-31.416587],[-62.100142,-31.4167335],[-62.1000508,-31.416793],[-62.0990146,-31.4169639],[-62.098379,-31.4141517],[-62.1004443,-31.4138037]]]}},{"type":"Feature","properties":{"id":24,"source":"Territorio OESTE.kml","updatedAt":"2026-09-28"},"geometry":{"type":"Polygon","coordinates":[[[-62.1043151,-31.4149107],[-62.1015846,-31.4153868],[-62.1012413,-31.4136655],[-62.1039396,-31.4132122],[-62.1043151,-31.4149107]]]}},{"type":"Feature","properties":{"id":25,"source":"Territorio OESTE.kml","updatedAt":"2026-09-28"},"geometry":{"type":"Polygon","coordinates":[[[-62.1043057,-31.4149635],[-62.104531,-31.4159983],[-62.1018542,-31.4164286],[-62.1016234,-31.4154168],[-62.1029485,-31.4151902],[-62.1043057,-31.4149635]]]}},{"type":"Feature","properties":{"id":26,"source":"Territorio OESTE.kml","updatedAt":"2026-09-28"},"geometry":{"type":"Polygon","coordinates":[[[-62.1039396,-31.4132122],[-62.105667,-31.412933],[-62.1060264,-31.414636],[-62.1043151,-31.4149107],[-62.1039396,-31.4132122]]]}},{"type":"Feature","properties":{"id":27,"source":"Territorio OESTE.kml","updatedAt":"2026-09-28"},"geometry":{"type":"Polygon","coordinates":[[[-62.1060264,-31.414636],[-62.1062663,-31.4157451],[-62.1045739,-31.416012],[-62.1043151,-31.4149107],[-62.1060264,-31.414636]]]}},{"type":"Feature","properties":{"id":28,"source":"Territorio OESTE.kml","updatedAt":"2026-09-28"},"geometry":{"type":"Polygon","coordinates":[[[-62.105667,-31.412933],[-62.1074709,-31.4126354],[-62.1078302,-31.414343],[-62.1060264,-31.414636],[-62.105667,-31.412933]]]}},{"type":"Feature","properties":{"id":29,"source":"Territorio OESTE.kml","updatedAt":"2026-09-28"},"geometry":{"type":"Polygon","coordinates":[[[-62.1078302,-31.414343],[-62.1080785,-31.415432],[-62.1062663,-31.4157451],[-62.1060264,-31.414636],[-62.1078302,-31.414343]]]}},{"type":"Feature","properties":{"id":30,"source":"Territorio OESTE.kml","updatedAt":"2026-09-28"},"geometry":{"type":"Polygon","coordinates":[[[-62.1125671,-31.4118458],[-62.1140638,-31.4115757],[-62.1150938,-31.4161493],[-62.1135542,-31.4163759],[-62.1125671,-31.4118458]]]}},{"type":"Feature","properties":{"id":31,"source":"Territorio OESTE.kml","updatedAt":"2026-09-28"},"geometry":{"type":"Polygon","coordinates":[[[-62.0968849,-31.4172935],[-62.0972918,-31.4191287],[-62.0950938,-31.4194716],[-62.094707,-31.4176598],[-62.0968849,-31.4172935]]]}},{"type":"Feature","properties":{"id":32,"source":"Territorio OESTE.kml","updatedAt":"2026-09-28"},"geometry":{"type":"Polygon","coordinates":[[[-62.0990146,-31.4169639],[-62.0994226,-31.4187707],[-62.0972918,-31.4191287],[-62.0968849,-31.4172935],[-62.0990146,-31.4169639]]]}},{"type":"Feature","properties":{"id":33,"source":"Territorio OESTE.kml","updatedAt":"2026-09-28"},"geometry":{"type":"Polygon","coordinates":[[[-62.1010969,-31.416587],[-62.1015147,-31.4183999],[-62.0994226,-31.4187707],[-62.0990146,-31.4169639],[-62.1000508,-31.416793],[-62.100142,-31.4167335],[-62.1010969,-31.416587]]]}},{"type":"Feature","properties":{"id":34,"source":"Territorio OESTE.kml","updatedAt":"2026-09-28"},"geometry":{"type":"Polygon","coordinates":[[[-62.1045739,-31.416012],[-62.1049708,-31.4178157],[-62.1015147,-31.4183999],[-62.1010969,-31.416587],[-62.1045739,-31.416012]]]}},{"type":"Feature","properties":{"id":35,"source":"Territorio OESTE.kml","updatedAt":"2026-09-28"},"geometry":{"type":"Polygon","coordinates":[[[-62.1062663,-31.4157451],[-62.1066875,-31.4175792],[-62.1049708,-31.4178157],[-62.1045739,-31.416012],[-62.1062663,-31.4157451]]]}},{"type":"Feature","properties":{"id":36,"source":"Territorio OESTE.kml","updatedAt":"2026-09-28"},"geometry":{"type":"Polygon","coordinates":[[[-62.1080785,-31.415432],[-62.1084749,-31.4172626],[-62.1066778,-31.4175464],[-62.1062663,-31.4157451],[-62.1080785,-31.415432]]]}},{"type":"Feature","properties":{"id":37,"source":"Territorio OESTE.kml","updatedAt":"2026-09-28"},"geometry":{"type":"Polygon","coordinates":[[[-62.0972918,-31.4191287],[-62.0976781,-31.4207722],[-62.095493,-31.4211347],[-62.0950938,-31.4194716],[-62.0972918,-31.4191287]]]}},{"type":"Feature","properties":{"id":38,"source":"Territorio OESTE.kml","updatedAt":"2026-09-28"},"geometry":{"type":"Polygon","coordinates":[[[-62.0994226,-31.4187707],[-62.0997713,-31.420405],[-62.0976781,-31.4207722],[-62.0972918,-31.4191287],[-62.0994226,-31.4187707]]]}},{"type":"Feature","properties":{"id":39,"source":"Territorio OESTE.kml","updatedAt":"2026-09-28"},"geometry":{"type":"Polygon","coordinates":[[[-62.1015147,-31.4183999],[-62.101891,-31.420072],[-62.0997713,-31.420405],[-62.0994226,-31.4187707],[-62.1015147,-31.4183999]]]}},{"type":"Feature","properties":{"id":40,"source":"Territorio OESTE.kml","updatedAt":"2026-09-28"},"geometry":{"type":"Polygon","coordinates":[[[-62.095493,-31.4211347],[-62.0990013,-31.4205396],[-62.0994359,-31.4223753],[-62.0958829,-31.4229918],[-62.095493,-31.4211347]]]}},{"type":"Feature","properties":{"id":41,"source":"Territorio OESTE.kml","updatedAt":"2026-09-28"},"geometry":{"type":"Polygon","coordinates":[[[-62.0990013,-31.4205396],[-62.1005034,-31.4202786],[-62.1008896,-31.4221372],[-62.0994359,-31.4223753],[-62.0990013,-31.4205396]]]}},{"type":"Feature","properties":{"id":42,"source":"Territorio OESTE.kml","updatedAt":"2026-09-28"},"geometry":{"type":"Polygon","coordinates":[[[-62.1005034,-31.4202786],[-62.101891,-31.420072],[-62.1023095,-31.4219032],[-62.1008896,-31.4221372],[-62.1005034,-31.4202786]]]}},{"type":"Feature","properties":{"id":43,"source":"Territorio OESTE.kml","updatedAt":"2026-09-28"},"geometry":{"type":"Polygon","coordinates":[[[-62.1054885,-31.4201528],[-62.1057513,-31.4213522],[-62.1023095,-31.4219032],[-62.1020445,-31.4207158],[-62.1054885,-31.4201528]]]}},{"type":"Feature","properties":{"id":44,"source":"Territorio OESTE.kml","updatedAt":"2026-09-28"},"geometry":{"type":"Polygon","coordinates":[[[-62.1090141,-31.4195629],[-62.1092877,-31.4207806],[-62.1057513,-31.4213522],[-62.1054885,-31.4201528],[-62.1090141,-31.4195629]]]}},{"type":"Feature","properties":{"id":45,"source":"Territorio OESTE.kml","updatedAt":"2026-09-28"},"geometry":{"type":"Polygon","coordinates":[[[-62.0980823,-31.4226097],[-62.0986026,-31.4250176],[-62.0964086,-31.4254591],[-62.0958829,-31.4229918],[-62.0980823,-31.4226097]]]}},{"type":"Feature","properties":{"id":46,"source":"Territorio OESTE.kml","updatedAt":"2026-09-28"},"geometry":{"type":"Polygon","coordinates":[[[-62.100169,-31.4222801],[-62.1007187,-31.4246697],[-62.0986026,-31.4250176],[-62.0980823,-31.4226097],[-62.100169,-31.4222801]]]}},{"type":"Feature","properties":{"id":47,"source":"Territorio OESTE.kml","updatedAt":"2026-09-28"},"geometry":{"type":"Polygon","coordinates":[[[-62.1023114,-31.4219381],[-62.1026024,-31.4231814],[-62.1004505,-31.423539],[-62.100169,-31.4222801],[-62.1023114,-31.4219381]]]}},{"type":"Feature","properties":{"id":48,"source":"Territorio OESTE.kml","updatedAt":"2026-09-28"},"geometry":{"type":"Polygon","coordinates":[[[-62.1026024,-31.4231814],[-62.1028596,-31.4243375],[-62.1007187,-31.4246697],[-62.1004505,-31.423539],[-62.1026024,-31.4231814]]]}},{"type":"Feature","properties":{"id":49,"source":"Territorio OESTE.kml","updatedAt":"2026-09-28"},"geometry":{"type":"Polygon","coordinates":[[[-62.1040508,-31.4216406],[-62.1043103,-31.4229297],[-62.1026024,-31.4231814],[-62.1023095,-31.4219032],[-62.1040508,-31.4216406]]]}},{"type":"Feature","properties":{"id":50,"source":"Territorio OESTE.kml","updatedAt":"2026-09-28"},"geometry":{"type":"Polygon","coordinates":[[[-62.1043103,-31.4229297],[-62.1046214,-31.4240603],[-62.1028596,-31.4243375],[-62.1026024,-31.4231814],[-62.1043103,-31.4229297]]]}},{"type":"Feature","properties":{"id":51,"source":"Territorio OESTE.kml","updatedAt":"2026-09-28"},"geometry":{"type":"Polygon","coordinates":[[[-62.1057513,-31.4213522],[-62.1060269,-31.4226275],[-62.1043103,-31.4229297],[-62.1040508,-31.4216406],[-62.1057513,-31.4213522]]]}},{"type":"Feature","properties":{"id":52,"source":"Territorio OESTE.kml","updatedAt":"2026-09-28"},"geometry":{"type":"Polygon","coordinates":[[[-62.1060269,-31.4226275],[-62.1062553,-31.423779],[-62.1046214,-31.4240603],[-62.1043103,-31.4229297],[-62.1060269,-31.4226275]]]}},{"type":"Feature","properties":{"id":53,"source":"Territorio OESTE.kml","updatedAt":"2026-09-28"},"geometry":{"type":"Polygon","coordinates":[[[-62.1074648,-31.4210858],[-62.1077172,-31.4223475],[-62.1060269,-31.4226275],[-62.1057513,-31.4213522],[-62.1074648,-31.4210858]]]}},{"type":"Feature","properties":{"id":54,"source":"Territorio OESTE.kml","updatedAt":"2026-09-28"},"geometry":{"type":"Polygon","coordinates":[[[-62.1077172,-31.4223475],[-62.107964,-31.4234964],[-62.1062553,-31.423779],[-62.1060269,-31.4226275],[-62.1077172,-31.4223475]]]}},{"type":"Feature","properties":{"id":55,"source":"Territorio OESTE.kml","updatedAt":"2026-09-28"},"geometry":{"type":"Polygon","coordinates":[[[-62.1092877,-31.4207806],[-62.1095679,-31.4220362],[-62.1077172,-31.4223475],[-62.1074648,-31.4210858],[-62.1092877,-31.4207806]]]}},{"type":"Feature","properties":{"id":56,"source":"Territorio OESTE.kml","updatedAt":"2026-09-28"},"geometry":{"type":"Polygon","coordinates":[[[-62.1095679,-31.4220362],[-62.1098511,-31.4231831],[-62.107964,-31.4234964],[-62.1077172,-31.4223475],[-62.1095679,-31.4220362]]]}},{"type":"Feature","properties":{"id":57,"source":"Territorio OESTE.kml","updatedAt":"2026-09-28"},"geometry":{"type":"Polygon","coordinates":[[[-62.1057135,-31.427139],[-62.1043509,-31.4273953],[-62.1039164,-31.4256833],[-62.1028596,-31.4243375],[-62.1062553,-31.423779],[-62.1069849,-31.4269055],[-62.1057135,-31.427139]]]}},{"type":"Feature","properties":{"id":58,"source":"Territorio OESTE.kml","updatedAt":"2026-09-28"},"geometry":{"type":"Polygon","coordinates":[[[-62.1062553,-31.423779],[-62.1098511,-31.4231831],[-62.1105001,-31.4263279],[-62.108772,-31.4266167],[-62.1069849,-31.4269055],[-62.1062553,-31.423779]]]}},{"type":"Feature","properties":{"id":59,"source":"Territorio OESTE.kml","updatedAt":"2026-09-28"},"geometry":{"type":"Polygon","coordinates":[[[-62.1150817,-31.4161699],[-62.1155741,-31.4183724],[-62.1160772,-31.4205704],[-62.1159739,-31.4206677],[-62.11185,-31.4213452],[-62.1115389,-31.4214413],[-62.1095487,-31.4218259],[-62.108508,-31.4172435],[-62.1150817,-31.4161699]]]}},{"type":"Feature","properties":{"id":60,"source":"Territorio OESTE.kml","updatedAt":"2026-09-28"},"geometry":{"type":"Polygon","coordinates":[[[-62.1219245,-31.4150198],[-62.122402,-31.41735],[-62.1189795,-31.4179131],[-62.1155945,-31.4184716],[-62.1150938,-31.4161493],[-62.1185145,-31.4156121],[-62.1219245,-31.4150198]]]}},{"type":"Feature","properties":{"id":61,"source":"Territorio OESTE.kml","updatedAt":"2026-09-28"},"geometry":{"type":"Polygon","coordinates":[[[-62.122402,-31.41735],[-62.1229002,-31.4195204],[-62.1161733,-31.42061],[-62.1160772,-31.4205704],[-62.1155945,-31.4184716],[-62.122402,-31.41735]]]}},{"type":"Feature","properties":{"id":62,"source":"Territorio OESTE.kml","updatedAt":"2026-09-28"},"geometry":{"type":"Polygon","coordinates":[[[-62.1188876,-31.4201431],[-62.1198425,-31.4244736],[-62.1170101,-31.4249497],[-62.1161303,-31.4207382],[-62.1161733,-31.42061],[-62.1188876,-31.4201431]]]}},{"type":"Feature","properties":{"id":63,"source":"Territorio OESTE.kml","updatedAt":"2026-09-28"},"geometry":{"type":"Polygon","coordinates":[[[-62.1229002,-31.4195204],[-62.1238658,-31.4238236],[-62.1198425,-31.4244736],[-62.1188876,-31.4201431],[-62.1229002,-31.4195204]]]}},{"type":"Feature","properties":{"id":64,"source":"Territorio OESTE.kml","updatedAt":"2026-09-28"},"geometry":{"type":"Polygon","coordinates":[[[-62.0971017,-31.4286468],[-62.1002506,-31.428093],[-62.100551,-31.4294341],[-62.0973967,-31.4299514],[-62.0971017,-31.4286468]]]}},{"type":"Feature","properties":{"id":65,"source":"Territorio OESTE.kml","updatedAt":"2026-09-28"},"geometry":{"type":"Polygon","coordinates":[[[-62.100551,-31.4294341],[-62.1009483,-31.431228],[-62.0977886,-31.4317361],[-62.0973967,-31.4299514],[-62.100551,-31.4294341]]]}},{"type":"Feature","properties":{"id":66,"source":"Territorio OESTE.kml","updatedAt":"2026-09-28"},"geometry":{"type":"Polygon","coordinates":[[[-62.1050681,-31.4305597],[-62.1009483,-31.431228],[-62.1008726,-31.4307808],[-62.1049442,-31.4300713],[-62.1050681,-31.4305597]]]}},{"type":"Feature","properties":{"id":67,"source":"Territorio OESTE.kml","updatedAt":"2026-09-28"},"geometry":{"type":"Polygon","coordinates":[[[-62.1068783,-31.4289004],[-62.1047808,-31.4292482],[-62.1043725,-31.4274279],[-62.1064565,-31.4270548],[-62.1068783,-31.4289004]]]}},{"type":"Feature","properties":{"id":68,"source":"Territorio OESTE.kml","updatedAt":"2026-09-28"},"geometry":{"type":"Polygon","coordinates":[[[-62.1050681,-31.4305597],[-62.1047808,-31.4292482],[-62.1068783,-31.4289004],[-62.1071894,-31.4302186],[-62.1050681,-31.4305597]]]}},{"type":"Feature","properties":{"id":69,"source":"Territorio OESTE.kml","updatedAt":"2026-09-28"},"geometry":{"type":"Polygon","coordinates":[[[-62.1064565,-31.4270548],[-62.1086774,-31.4266749],[-62.1090851,-31.4285334],[-62.1068783,-31.4289004],[-62.1064565,-31.4270548]]]}},{"type":"Feature","properties":{"id":70,"source":"Territorio OESTE.kml","updatedAt":"2026-09-28"},"geometry":{"type":"Polygon","coordinates":[[[-62.1090851,-31.4285334],[-62.1093663,-31.4298592],[-62.1071894,-31.4302186],[-62.1068783,-31.4289004],[-62.1090851,-31.4285334]]]}},{"type":"Feature","properties":{"id":71,"source":"Territorio OESTE.kml","updatedAt":"2026-09-28"},"geometry":{"type":"Polygon","coordinates":[[[-62.1086774,-31.4266749],[-62.1105335,-31.4263682],[-62.1109626,-31.4282496],[-62.1090851,-31.4285334],[-62.1086774,-31.4266749]]]}},{"type":"Feature","properties":{"id":72,"source":"Territorio OESTE.kml","updatedAt":"2026-09-28"},"geometry":{"type":"Polygon","coordinates":[[[-62.1109626,-31.4282496],[-62.1112439,-31.4295708],[-62.1093663,-31.4298592],[-62.1090851,-31.4285334],[-62.1109626,-31.4282496]]]}},{"type":"Feature","properties":{"id":73,"source":"Territorio OESTE.kml","updatedAt":"2026-09-28"},"geometry":{"type":"Polygon","coordinates":[[[-62.1009483,-31.431228],[-62.1013399,-31.4330085],[-62.0981856,-31.4335395],[-62.0977886,-31.4317361],[-62.1009483,-31.431228]]]}},{"type":"Feature","properties":{"id":74,"source":"Territorio OESTE.kml","updatedAt":"2026-09-28"},"geometry":{"type":"Polygon","coordinates":[[[-62.102917,-31.4309122],[-62.1033408,-31.4326881],[-62.1013399,-31.4330085],[-62.1009483,-31.431228],[-62.102917,-31.4309122]]]}},{"type":"Feature","properties":{"id":75,"source":"Territorio OESTE.kml","updatedAt":"2026-09-28"},"geometry":{"type":"Polygon","coordinates":[[[-62.1033408,-31.4326881],[-62.102917,-31.4309122],[-62.1050681,-31.4305597],[-62.1054812,-31.4323449],[-62.1033408,-31.4326881]]]}},{"type":"Feature","properties":{"id":76,"source":"Territorio OESTE.kml","updatedAt":"2026-09-28"},"geometry":{"type":"Polygon","coordinates":[[[-62.1082412,-31.4300695],[-62.1086221,-31.4318547],[-62.1054812,-31.4323449],[-62.1050681,-31.4305597],[-62.1082412,-31.4300695]]]}},{"type":"Feature","properties":{"id":77,"source":"Territorio OESTE.kml","updatedAt":"2026-09-28"},"geometry":{"type":"Polygon","coordinates":[[[-62.1112439,-31.4295708],[-62.1116573,-31.4314015],[-62.1087283,-31.4318317],[-62.1083367,-31.4300374],[-62.1112439,-31.4295708]]]}},{"type":"Feature","properties":{"id":78,"source":"Territorio OESTE.kml","updatedAt":"2026-09-28"},"geometry":{"type":"Polygon","coordinates":[[[-62.1010265,-31.4352939],[-62.0986929,-31.4356646],[-62.0982399,-31.4336481],[-62.100335,-31.4332891],[-62.1005389,-31.4342],[-62.1008608,-31.4344334],[-62.1010265,-31.4352939]]]}},{"type":"Feature","properties":{"id":79,"source":"Territorio OESTE.kml","updatedAt":"2026-09-28"},"geometry":{"type":"Polygon","coordinates":[[[-62.1010265,-31.4352939],[-62.1012464,-31.4362093],[-62.0988914,-31.4365983],[-62.0986929,-31.4356646],[-62.1010265,-31.4352939]]]}},{"type":"Feature","properties":{"id":80,"source":"Territorio OESTE.kml","updatedAt":"2026-09-28"},"geometry":{"type":"Polygon","coordinates":[[[-62.1023193,-31.4351199],[-62.1010265,-31.4352939],[-62.1008608,-31.4344334],[-62.1005389,-31.4342],[-62.100335,-31.4332891],[-62.1018263,-31.4330191],[-62.1023193,-31.4351199]]]}},{"type":"Feature","properties":{"id":81,"source":"Territorio OESTE.kml","updatedAt":"2026-09-28"},"geometry":{"type":"Polygon","coordinates":[[[-62.1023193,-31.4351199],[-62.1025392,-31.4359621],[-62.1012464,-31.4362093],[-62.1010265,-31.4352939],[-62.1023193,-31.4351199]]]}},{"type":"Feature","properties":{"id":82,"source":"Territorio OESTE.kml","updatedAt":"2026-09-28"},"geometry":{"type":"Polygon","coordinates":[[[-62.1054795,-31.4324515],[-62.1056244,-31.4330831],[-62.1019658,-31.4336461],[-62.1018263,-31.4330191],[-62.1054795,-31.4324515]]]}},{"type":"Feature","properties":{"id":83,"source":"Territorio OESTE.kml","updatedAt":"2026-09-28"},"geometry":{"type":"Polygon","coordinates":[[[-62.1050074,-31.4331884],[-62.1051147,-31.433694],[-62.1034786,-31.4339686],[-62.1035499,-31.4337119],[-62.1020318,-31.4339591],[-62.1019658,-31.4336461],[-62.1050074,-31.4331884]]]}},{"type":"Feature","properties":{"id":84,"source":"Territorio OESTE.kml","updatedAt":"2026-09-28"},"geometry":{"type":"Polygon","coordinates":[[[-62.1037859,-31.4357533],[-62.1025392,-31.4359621],[-62.1020318,-31.4339591],[-62.1035499,-31.4337119],[-62.1033997,-31.4341055],[-62.1037859,-31.4357533]]]}},{"type":"Feature","properties":{"id":85,"source":"Territorio OESTE.kml","updatedAt":"2026-09-28"},"geometry":{"type":"Polygon","coordinates":[[[-62.1051147,-31.433694],[-62.1055653,-31.4354699],[-62.1037859,-31.4357533],[-62.1033997,-31.4341055],[-62.1034786,-31.4339686],[-62.1051147,-31.433694]]]}},{"type":"Feature","properties":{"id":86,"source":"Territorio OESTE.kml","updatedAt":"2026-09-28"},"geometry":{"type":"Polygon","coordinates":[[[-62.1056244,-31.4330831],[-62.1061823,-31.4353717],[-62.1055653,-31.4354699],[-62.1050074,-31.4331884],[-62.1056244,-31.4330831]]]}},{"type":"Feature","properties":{"id":87,"source":"Territorio OESTE.kml","updatedAt":"2026-09-28"},"geometry":{"type":"Polygon","coordinates":[[[-62.1086493,-31.4319609],[-62.108955,-31.4332242],[-62.1057793,-31.4337598],[-62.1054795,-31.4324515],[-62.1086493,-31.4319609]]]}},{"type":"Feature","properties":{"id":88,"source":"Territorio OESTE.kml","updatedAt":"2026-09-28"},"geometry":{"type":"Polygon","coordinates":[[[-62.1116583,-31.431467],[-62.1119641,-31.4327486],[-62.109019,-31.4332018],[-62.1087508,-31.4319247],[-62.1116583,-31.431467]]]}},{"type":"Feature","properties":{"id":89,"source":"Territorio OESTE.kml","updatedAt":"2026-09-28"},"geometry":{"type":"Polygon","coordinates":[[[-62.1062805,-31.4356618],[-62.106479,-31.4366047],[-62.0991565,-31.4377809],[-62.0989849,-31.4369479],[-62.1062805,-31.4356618]]]}},{"type":"Feature","properties":{"id":90,"source":"Territorio OESTE.kml","updatedAt":"2026-09-28"},"geometry":{"type":"Polygon","coordinates":[[[-62.1028963,-31.4389807],[-62.0995489,-31.4395483],[-62.0991949,-31.437809],[-62.1025155,-31.437269],[-62.1028963,-31.4389807]]]}},{"type":"Feature","properties":{"id":91,"source":"Territorio OESTE.kml","updatedAt":"2026-09-28"},"geometry":{"type":"Polygon","coordinates":[[[-62.1048597,-31.4386741],[-62.1029339,-31.4389853],[-62.102553,-31.4372644],[-62.1044735,-31.436944],[-62.1048597,-31.4386741]]]}},{"type":"Feature","properties":{"id":92,"source":"Territorio OESTE.kml","updatedAt":"2026-09-28"},"geometry":{"type":"Polygon","coordinates":[[[-62.1070989,-31.4365346],[-62.1075066,-31.4382327],[-62.1048941,-31.4386538],[-62.1045079,-31.4369328],[-62.1070989,-31.4365346]]]}},{"type":"Feature","properties":{"id":93,"source":"Territorio OESTE.kml","updatedAt":"2026-09-28"},"geometry":{"type":"Polygon","coordinates":[[[-62.1034583,-31.4413508],[-62.1000895,-31.4418611],[-62.0995718,-31.4395831],[-62.1029085,-31.4390281],[-62.1031137,-31.4398382],[-62.1033296,-31.440781],[-62.1034583,-31.4413508]]]}},{"type":"Feature","properties":{"id":94,"source":"Territorio OESTE.kml","updatedAt":"2026-09-28"},"geometry":{"type":"Polygon","coordinates":[[[-62.1048833,-31.4387056],[-62.1054277,-31.4410352],[-62.1034878,-31.4413508],[-62.1029521,-31.4390168],[-62.1048833,-31.4387056]]]}},{"type":"Feature","properties":{"id":95,"source":"Territorio OESTE.kml","updatedAt":"2026-09-28"},"geometry":{"type":"Polygon","coordinates":[[[-62.1068896,-31.4383715],[-62.1074314,-31.4406965],[-62.1054465,-31.4410489],[-62.1049208,-31.438701],[-62.1068896,-31.4383715]]]}},{"type":"Feature","properties":{"id":96,"source":"Territorio OESTE.kml","updatedAt":"2026-09-28"},"geometry":{"type":"Polygon","coordinates":[[[-62.1089747,-31.4380223],[-62.1094736,-31.4403702],[-62.1087977,-31.4405213],[-62.108111,-31.4406219],[-62.1080574,-31.4405853],[-62.1074287,-31.4406987],[-62.1069255,-31.4383701],[-62.1089747,-31.4380223]]]}}]}